[{"OBJECT_NAME":"ONEWEB-0629","OBJECT_ID":"2023-004AG","EPOCH":"2026-06-13T02:07:58.509696","MEAN_MOTION":13.17648412,"ECCENTRICITY":0.000194,"INCLINATION":87.9134,"RA_OF_ASC_NODE":6.6859,"ARG_OF_PERICENTER":78.4943,"MEAN_ANOMALY":281.6406,"EPHEMERIS_TYPE":0,"CLASSIFICATION_TYPE":"U","NORAD_CAT_ID":55170,"ELEMENT_SET_NO":999,"REV_AT_EPOCH":16704,"BSTAR":-0.00017719,"MEAN_MOTION_DOT":-5.6e-07,"MEAN_MOTION_DDOT":0.0},{"OBJECT_NAME":"ONEWEB-0631","OBJECT_ID":"2023-004AH","EPOCH":"2026-06-13T05:33:45.632160","MEAN_MOTION":13.18684646,"ECCENTRICITY":0.0002175,"INCLINATION":87.9167,"RA_OF_ASC_NODE":336.2226,"ARG_OF_PERICENTER":103.8091,"MEAN_ANOMALY":256.3283,"EPHEMERIS_TYPE":0,"CLASSIFICATION_TYPE":"U","NORAD_CAT_ID":55171,"ELEMENT_SET_NO":999,"REV_AT_EPOCH":16915,"BSTAR":-5.3801e-05,"MEAN_MOTION_DOT":-8e-08,"MEAN_MOTION_DDOT":0.0},{"OBJECT_NAME":"ONEWEB-0709","OBJECT_ID":"2023-004AJ","EPOCH":"2026-06-13T02:01:24.046176","MEAN_MOTION":13.11414697,"ECCENTRICITY":0.0001594,"INCLINATION":87.8886,"RA_OF_ASC_NODE":21.8961,"ARG_OF_PERICENTER":114.207,"MEAN_ANOMALY":245.9225,"EPHEMERIS_TYPE":0,"CLASSIFICATION_TYPE":"U","NORAD_CAT_ID":55172,"ELEMENT_SET_NO":999,"REV_AT_EPOCH":16533,"BSTAR":-0.00083774,"MEAN_MOTION_DOT":-2.84e-06,"MEAN_MOTION_DDOT":0.0},{"OBJECT_NAME":"ONEWEB-0710","OBJECT_ID":"2023-004AK","EPOCH":"2026-06-13T06:07:20.562240","MEAN_MOTION":13.17649982,"ECCENTRICITY":0.0002009,"INCLINATION":87.9135,"RA_OF_ASC_NODE":6.648,"ARG_OF_PERICENTER":87.6252,"MEAN_ANOMALY":272.511,"EPHEMERIS_TYPE":0,"CLASSIFICATION_TYPE":"U","NORAD_CAT_ID":55173,"ELEMENT_SET_NO":999,"REV_AT_EPOCH":16706,"BSTAR":0.00012131,"MEAN_MOTION_DOT":6e-07,"MEAN_MOTION_DDOT":0.0},{"OBJECT_NAME":"ONEWEB-0711","OBJECT_ID":"2023-004AL","EPOCH":"2026-06-13T03:09:47.731680","MEAN_MOTION":13.11418839,"ECCENTRICITY":0.0002553,"INCLINATION":87.8891,"RA_OF_ASC_NODE":21.8739,"ARG_OF_PERICENTER":84.3731,"MEAN_ANOMALY":275.7688,"EPHEMERIS_TYPE":0,"CLASSIFICATION_TYPE":"U","NORAD_CAT_ID":55174,"ELEMENT_SET_NO":999,"REV_AT_EPOCH":16530,"BSTAR":0.0015895000000000002,"MEAN_MOTION_DOT":5.76e-06,"MEAN_MOTION_DDOT":0.0},{"OBJECT_NAME":"ONEWEB-0713","OBJECT_ID":"2023-004AM","EPOCH":"2026-06-13T01:46:46.154784","MEAN_MOTION":13.11414302,"ECCENTRICITY":0.0002203,"INCLINATION":87.8891,"RA_OF_ASC_NODE":21.8869,"ARG_OF_PERICENTER":84.9641,"MEAN_ANOMALY":275.1739,"EPHEMERIS_TYPE":0,"CLASSIFICATION_TYPE":"U","NORAD_CAT_ID":55175,"ELEMENT_SET_NO":999,"REV_AT_EPOCH":16528,"BSTAR":0.00025808,"MEAN_MOTION_DOT":1.04e-06,"MEAN_MOTION_DDOT":0.0},{"OBJECT_NAME":"ONEWEB-0715","OBJECT_ID":"2023-004AN","EPOCH":"2026-06-13T03:29:18.641760","MEAN_MOTION":13.11416213,"ECCENTRICITY":0.0001946,"INCLINATION":87.8889,"RA_OF_ASC_NODE":21.8735,"ARG_OF_PERICENTER":106.3773,"MEAN_ANOMALY":253.7569,"EPHEMERIS_TYPE":0,"CLASSIFICATION_TYPE":"U","NORAD_CAT_ID":55176,"ELEMENT_SET_NO":999,"REV_AT_EPOCH":16533,"BSTAR":0.00091228,"MEAN_MOTION_DOT":3.36e-06,"MEAN_MOTION_DDOT":0.0},{"OBJECT_NAME":"ONEWEB-0716","OBJECT_ID":"2023-004AP","EPOCH":"2026-06-13T02:18:55.614528","MEAN_MOTION":13.1764959,"ECCENTRICITY":0.0001627,"INCLINATION":87.9138,"RA_OF_ASC_NODE":6.6824,"ARG_OF_PERICENTER":83.0081,"MEAN_ANOMALY":277.1236,"EPHEMERIS_TYPE":0,"CLASSIFICATION_TYPE":"U","NORAD_CAT_ID":55177,"ELEMENT_SET_NO":999,"REV_AT_EPOCH":16704,"BSTAR":0.00015616,"MEAN_MOTION_DOT":7.4e-07,"MEAN_MOTION_DDOT":0.0},{"OBJECT_NAME":"ONEWEB-0717","OBJECT_ID":"2023-004AQ","EPOCH":"2026-06-13T01:54:37.625760","MEAN_MOTION":13.17648628,"ECCENTRICITY":0.0002398,"INCLINATION":87.9145,"RA_OF_ASC_NODE":6.673,"ARG_OF_PERICENTER":91.2644,"MEAN_ANOMALY":268.8762,"EPHEMERIS_TYPE":0,"CLASSIFICATION_TYPE":"U","NORAD_CAT_ID":55178,"ELEMENT_SET_NO":999,"REV_AT_EPOCH":16709,"BSTAR":0.00020179,"MEAN_MOTION_DOT":9.1e-07,"MEAN_MOTION_DDOT":0.0},{"OBJECT_NAME":"ONEWEB-0719","OBJECT_ID":"2023-004AR","EPOCH":"2026-06-13T02:09:12.922560","MEAN_MOTION":13.17649057,"ECCENTRICITY":0.0001773,"INCLINATION":87.9144,"RA_OF_ASC_NODE":6.6513,"ARG_OF_PERICENTER":80.9966,"MEAN_ANOMALY":279.1366,"EPHEMERIS_TYPE":0,"CLASSIFICATION_TYPE":"U","NORAD_CAT_ID":55179,"ELEMENT_SET_NO":999,"REV_AT_EPOCH":16704,"BSTAR":0.00026823000000000005,"MEAN_MOTION_DOT":1.17e-06,"MEAN_MOTION_DDOT":0.0},{"OBJECT_NAME":"ONEWEB-0530","OBJECT_ID":"2023-029A","EPOCH":"2026-06-13T05:25:55.621344","MEAN_MOTION":13.2077131,"ECCENTRICITY":0.0002346,"INCLINATION":87.9181,"RA_OF_ASC_NODE":275.2586,"ARG_OF_PERICENTER":93.2574,"MEAN_ANOMALY":266.8828,"EPHEMERIS_TYPE":0,"CLASSIFICATION_TYPE":"U","NORAD_CAT_ID":55796,"ELEMENT_SET_NO":999,"REV_AT_EPOCH":16062,"BSTAR":9.7628e-06,"MEAN_MOTION_DOT":1.7e-07,"MEAN_MOTION_DDOT":0.0},{"OBJECT_NAME":"ONEWEB-0534","OBJECT_ID":"2023-029B","EPOCH":"2026-06-13T01:30:46.146240","MEAN_MOTION":13.20771577,"ECCENTRICITY":0.0001866,"INCLINATION":87.9181,"RA_OF_ASC_NODE":275.2918,"ARG_OF_PERICENTER":100.2415,"MEAN_ANOMALY":259.8928,"EPHEMERIS_TYPE":0,"CLASSIFICATION_TYPE":"U","NORAD_CAT_ID":55797,"ELEMENT_SET_NO":999,"REV_AT_EPOCH":16060,"BSTAR":-5.9171e-05,"MEAN_MOTION_DOT":-1.1e-07,"MEAN_MOTION_DDOT":0.0},{"OBJECT_NAME":"ONEWEB-0556","OBJECT_ID":"2023-029C","EPOCH":"2026-06-13T05:18:38.971296","MEAN_MOTION":13.2077362,"ECCENTRICITY":0.0001742,"INCLINATION":87.918,"RA_OF_ASC_NODE":275.2597,"ARG_OF_PERICENTER":74.2931,"MEAN_ANOMALY":285.8394,"EPHEMERIS_TYPE":0,"CLASSIFICATION_TYPE":"U","NORAD_CAT_ID":55798,"ELEMENT_SET_NO":999,"REV_AT_EPOCH":16062,"BSTAR":-6.7166e-05,"MEAN_MOTION_DOT":-1.4e-07,"MEAN_MOTION_DDOT":0.0},{"OBJECT_NAME":"ONEWEB-0562","OBJECT_ID":"2023-029D","EPOCH":"2026-06-13T06:48:20.161152","MEAN_MOTION":13.20770796,"ECCENTRICITY":0.000242,"INCLINATION":87.918,"RA_OF_ASC_NODE":275.2282,"ARG_OF_PERICENTER":80.787,"MEAN_ANOMALY":279.3537,"EPHEMERIS_TYPE":0,"CLASSIFICATION_TYPE":"U","NORAD_CAT_ID":55799,"ELEMENT_SET_NO":999,"REV_AT_EPOCH":16063,"BSTAR":7.9972e-05,"MEAN_MOTION_DOT":4.6e-07,"MEAN_MOTION_DDOT":0.0},{"OBJECT_NAME":"ONEWEB-0563","OBJECT_ID":"2023-029E","EPOCH":"2026-06-13T06:41:04.694784","MEAN_MOTION":13.20772215,"ECCENTRICITY":0.0001737,"INCLINATION":87.9181,"RA_OF_ASC_NODE":275.2597,"ARG_OF_PERICENTER":101.7105,"MEAN_ANOMALY":258.4224,"EPHEMERIS_TYPE":0,"CLASSIFICATION_TYPE":"U","NORAD_CAT_ID":55800,"ELEMENT_SET_NO":999,"REV_AT_EPOCH":16062,"BSTAR":0.00018946,"MEAN_MOTION_DOT":9e-07,"MEAN_MOTION_DDOT":0.0},{"OBJECT_NAME":"ONEWEB-0564","OBJECT_ID":"2023-029F","EPOCH":"2026-06-13T06:31:22.875456","MEAN_MOTION":13.20770839,"ECCENTRICITY":0.0002207,"INCLINATION":87.9183,"RA_OF_ASC_NODE":275.2344,"ARG_OF_PERICENTER":91.3009,"MEAN_ANOMALY":268.8377,"EPHEMERIS_TYPE":0,"CLASSIFICATION_TYPE":"U","NORAD_CAT_ID":55801,"ELEMENT_SET_NO":999,"REV_AT_EPOCH":16063,"BSTAR":0.00018769,"MEAN_MOTION_DOT":8.9e-07,"MEAN_MOTION_DDOT":0.0}]