ONEWEB-0629             
1 55170U 23004AG  26164.08887164 -.00000056  00000+0 -17719-3 0  9998
2 55170  87.9134   6.6859 0001940  78.4943 281.6406 13.17648412167047
ONEWEB-0631             
1 55171U 23004AH  26164.23177815 -.00000008  00000+0 -53801-4 0  9991
2 55171  87.9167 336.2226 0002175 103.8091 256.3283 13.18684646169158
ONEWEB-0709             
1 55172U 23004AJ  26164.08430609 -.00000284  00000+0 -83774-3 0  9995
2 55172  87.8886  21.8961 0001594 114.2070 245.9225 13.11414697165332
ONEWEB-0710             
1 55173U 23004AK  26164.25509910  .00000060  00000+0  12131-3 0  9996
2 55173  87.9135   6.6480 0002009  87.6252 272.5110 13.17649982167069
ONEWEB-0711             
1 55174U 23004AL  26164.13180245  .00000576  00000+0  15895-2 0  9991
2 55174  87.8891  21.8739 0002553  84.3731 275.7688 13.11418839165303
ONEWEB-0713             
1 55175U 23004AM  26164.07414531  .00000104  00000+0  25808-3 0  9996
2 55175  87.8891  21.8869 0002203  84.9641 275.1739 13.11414302165285
ONEWEB-0715             
1 55176U 23004AN  26164.14535465  .00000336  00000+0  91228-3 0  9991
2 55176  87.8889  21.8735 0001946 106.3773 253.7569 13.11416213165335
ONEWEB-0716             
1 55177U 23004AP  26164.09647702  .00000074  00000+0  15616-3 0  9990
2 55177  87.9138   6.6824 0001627  83.0081 277.1236 13.17649590167046
ONEWEB-0717             
1 55178U 23004AQ  26164.07960215  .00000091  00000+0  20179-3 0  9995
2 55178  87.9145   6.6730 0002398  91.2644 268.8762 13.17648628167090
ONEWEB-0719             
1 55179U 23004AR  26164.08973290  .00000117  00000+0  26823-3 0  9995
2 55179  87.9144   6.6513 0001773  80.9966 279.1366 13.17649057167044
ONEWEB-0530             
1 55796U 23029A   26164.22633821  .00000017  00000+0  97628-5 0  9998
2 55796  87.9181 275.2586 0002346  93.2574 266.8828 13.20771310160628
ONEWEB-0534             
1 55797U 23029B   26164.06303410 -.00000011  00000+0 -59171-4 0  9995
2 55797  87.9181 275.2918 0001866 100.2415 259.8928 13.20771577160603
ONEWEB-0556             
1 55798U 23029C   26164.22128439 -.00000014  00000+0 -67166-4 0  9996
2 55798  87.9180 275.2597 0001742  74.2931 285.8394 13.20773620160621
ONEWEB-0562             
1 55799U 23029D   26164.28356668  .00000046  00000+0  79972-4 0  9991
2 55799  87.9180 275.2282 0002420  80.7870 279.3537 13.20770796160630
ONEWEB-0563             
1 55800U 23029E   26164.27852656  .00000090  00000+0  18946-3 0  9993
2 55800  87.9181 275.2597 0001737 101.7105 258.4224 13.20772215160626
ONEWEB-0564             
1 55801U 23029F   26164.27179254  .00000089  00000+0  18769-3 0  9991
2 55801  87.9183 275.2344 0002207  91.3009 268.8377 13.20770839160634
